NORAD_CAT_ID,OBJECT_NAME,OBJECT_TYPE,EPOCH,MEAN_MOTION,ECCENTRICITY,INCLINATION,RA_OF_ASC_NODE,ARG_OF_PERICENTER,MEAN_ANOMALY,BSTAR,MEAN_MOTION_DOT,MEAN_MOTION_DDOT,TLE_LINE0,TLE_LINE1,TLE_LINE2,SEMIMAJOR_AXIS,PERIOD,APOGEE,PERIGEE,DECAYED
37853,RAX-2,PAYLOAD,2019-06-29 05:14:50,15.03431626,0.017031900000000003,101.7113,72.8204,59.2198,302.5657,4.1219e-05,6.11e-06,0.0,0 RAX-2,1 37853U 11061D   19180.21864286  .00000611  00000-0  41219-4 0  9990,2 37853 101.7113  72.8204 0170319  59.2198 302.5657 15.03431626418079,6934.4609999999975,95.781,674.433,438.219,0.0
37853,RAX-2,PAYLOAD,2019-06-29 19:37:20,15.03432365,0.0170317,101.7112,73.7237,57.4489,304.3045,3.9257e-05,5.74e-06,0.0,0 RAX-2,1 37853U 11061D   19180.81759418 +.00000574 +00000-0 +39257-4 0  9993,2 37853 101.7112 073.7237 0170317 057.4489 304.3045 15.03432365417683,6934.459,95.781,674.43,438.218,0.0
37853,RAX-2,PAYLOAD,2019-06-30 11:35:39,15.03433663,0.0170305,101.711,74.7274,55.4866,306.2293,4.0585e-05,5.99e-06,0.0,0 RAX-2,1 37853U 11061D   19181.48309445  .00000599  00000-0  40585-4 0  9991,2 37853 101.7110  74.7274 0170305  55.4866 306.2293 15.03433663418260,6934.455,95.781,674.4169999999998,438.223,0.0
37853,RAX-2,PAYLOAD,2019-06-30 17:58:59,15.03433799,0.017031,101.7109,75.1289,54.6965,307.0039,3.8101e-05,5.53e-06,0.0,0 RAX-2,1 37853U 11061D   19181.74929468 +.00000553 +00000-0 +38101-4 0  9994,2 37853 101.7109 075.1289 0170310 054.6965 307.0039 15.03433799417824,6934.454000000002,95.781,674.42,438.219,0.0
37853,RAX-2,PAYLOAD,2019-07-01 16:20:37,15.0343615,0.0170298,101.7108,76.5339,51.9384,309.7054,4.4421e-05,6.71e-06,0.0,0 RAX-2,1 37853U 11061D   19182.68099301  .00000671  00000-0  44421-4 0  9995,2 37853 101.7108  76.5339 0170298  51.9384 309.7054 15.03436150418443,6934.446999999999,95.781,674.405,438.22,0.0
37853,RAX-2,PAYLOAD,2019-07-02 16:18:06,15.03437776,0.017027900000000002,101.7106,78.0395,48.9844,312.5948,4.3963e-05,6.62e-06,0.0,0 RAX-2,1 37853U 11061D   19183.67923998 +.00000662 +00000-0 +43963-4 0  9993,2 37853 101.7106 078.0395 0170279 048.9844 312.5948 15.03437776418119,6934.441999999999,95.78,674.3860000000002,438.228,0.0
37853,RAX-2,PAYLOAD,2019-07-03 05:04:45,15.03439129,0.0170266,101.7105,78.8424,47.4092,314.1341,4.8212e-05,7.42e-06,0.0,0 RAX-2,1 37853U 11061D   19184.21163750  .00000742  00000-0  48212-4 0  9997,2 37853 101.7105  78.8424 0170266  47.4092 314.1341 15.03439129418674,6934.438,95.78,674.373,438.233,0.0
37853,RAX-2,PAYLOAD,2019-07-03 14:39:44,15.03439788,0.0170257,101.7104,79.4445,46.2251,315.2904,4.816e-05,7.41e-06,0.0,0 RAX-2,1 37853U 11061D   19184.61093534 +.00000741 +00000-0 +48160-4 0  9994,2 37853 101.7104 079.4445 0170257 046.2251 315.2904 15.03439788418259,6934.436,95.78,674.365,438.23699999999997,0.0
37853,RAX-2,PAYLOAD,2019-07-04 06:38:03,15.03441125,0.0170243,101.7103,80.4481,44.2544,317.2137,5.060100000000001e-05,7.87e-06,0.0,0 RAX-2,1 37853U 11061D   19185.27643122  .00000787  00000-0  50601-4 0  9994,2 37853 101.7103  80.4481 0170243  44.2544 317.2137 15.03441125418830,6934.432,95.78,674.3510000000001,438.24300000000005,0.0
37853,RAX-2,PAYLOAD,2019-07-04 17:48:52,15.03441797,0.0170236,101.7102,81.1506,42.8745,318.5594,4.9928e-05,7.74e-06,0.0,0 RAX-2,1 37853U 11061D   19185.74227795 +.00000774 +00000-0 +49928-4 0  9996,2 37853 101.7102 081.1506 0170236 042.8745 318.5594 15.03441797418425,6934.43,95.78,674.3439999999998,438.246,0.0
37853,RAX-2,PAYLOAD,2019-07-05 17:46:20,15.03443433,0.0170221,101.71,82.656,39.9201,321.4384,5.0117e-05,7.78e-06,0.0,0 RAX-2,1 37853U 11061D   19186.74051954  .00000778  00000-0  50117-4 0  9995,2 37853 101.7100  82.6560 0170221  39.9201 321.4384 15.03443433419056,6934.425,95.78,674.328,438.251,0.0
37853,RAX-2,PAYLOAD,2019-07-06 17:43:48,15.03444798,0.017021,101.7098,84.1613,36.9673,324.3126,4.8113999999999994e-05,7.400000000000001e-06,0.0,0 RAX-2,1 37853U 11061D   19187.73875959 +.00000740 +00000-0 +48114-4 0  9997,2 37853 101.7098 084.1613 0170210 036.9673 324.3126 15.03444798418720,6934.4209999999985,95.78,674.316,438.255,0.0
37853,RAX-2,PAYLOAD,2019-07-07 04:54:37,15.03445457,0.0170201,101.7097,84.8638,35.5955,325.6469,4.779e-05,7.34e-06,0.0,0 RAX-2,1 37853U 11061D   19188.20460451  .00000734  00000-0  47790-4 0  9999,2 37853 101.7097  84.8638 0170201  35.5955 325.6469 15.03445457419279,6934.419,95.78,674.308,438.259,0.0
37853,RAX-2,PAYLOAD,2019-07-07 16:05:26,15.03446476,0.0170203,101.7097,85.5663,34.2156,326.9884,5.0333999999999996e-05,7.81e-06,0.0,0 RAX-2,1 37853U 11061D   19188.67044883 +.00000781 +00000-0 +50334-4 0  9997,2 37853 101.7097 085.5663 0170203 034.2156 326.9884 15.03446476418867,6934.415,95.78,674.306,438.255,0.0
37853,RAX-2,PAYLOAD,2019-07-08 06:27:55,15.03448052,0.0170195,101.7096,86.4695,32.4489,328.705,5.5919e-05,8.86e-06,0.0,0 RAX-2,1 37853U 11061D   19189.26939093  .00000886  00000-0  55919-4 0  9999,2 37853 101.7096  86.4695 0170195  32.4489 328.7050 15.03448052419431,6934.411,95.78,674.296,438.255,0.0
37853,RAX-2,PAYLOAD,2019-07-08 16:02:54,15.03448744,0.0170192,101.7096,87.0716,31.2697,329.8503,5.6157e-05,8.91e-06,0.0,0 RAX-2,1 37853U 11061D   19189.66868539 +.00000891 +00000-0 +56157-4 0  9990,2 37853 101.7096 087.0716 0170192 031.2697 329.8503 15.03448744419014,6934.409000000002,95.78,674.2919999999998,438.255,0.0
37853,RAX-2,PAYLOAD,2019-07-09 08:01:12,15.03451371,0.0170187,101.7096,88.0752,29.3069,331.7558,6.8617e-05,1.125e-05,0.0,0 RAX-2,1 37853U 11061D   19190.33417475  .00001125  00000-0  68617-4 0  9990,2 37853 101.7096  88.0752 0170187  29.3069 331.7558 15.03451371419595,6934.4,95.78,674.28,438.251,0.0
37853,RAX-2,PAYLOAD,2019-07-09 16:00:21,15.0345159,0.017018900000000003,101.7096,88.5769,28.3245,332.7091,6.5233e-05,1.061e-05,0.0,0 RAX-2,1 37853U 11061D   19190.66691967 +.00001061 +00000-0 +65233-4 0  9996,2 37853 101.7096 088.5769 0170189 028.3245 332.7091 15.03451590419164,6934.4,95.78,674.2810000000002,438.249,0.0
37853,RAX-2,PAYLOAD,2019-07-10 15:57:49,15.03455287,0.017019,101.7096,90.0823,25.3817,335.5633,7.710699999999999e-05,1.284e-05,0.0,0 RAX-2,1 37853U 11061D   19191.66515078  .00001284  00000-0  77107-4 0  9995,2 37853 101.7096  90.0823 0170190  25.3817 335.5633 15.03455287419796,6934.388000000001,95.779,674.27,438.23699999999997,0.0
37853,RAX-2,PAYLOAD,2019-07-12 15:52:42,15.03460296,0.0170192,101.7096,93.0932,19.5048,341.2571,7.539600000000001e-05,1.252e-05,0.0,0 RAX-2,1 37853U 11061D   19193.66160783  .00001252  00000-0  75396-4 0  9999,2 37853 101.7096  93.0932 0170192  19.5048 341.2571 15.03460296420099,6934.373000000001,95.779,674.255,438.221,0.0
37853,RAX-2,PAYLOAD,2019-07-13 15:50:09,15.03462396,0.017018099999999998,101.7096,94.5986,16.5681,344.0997,6.8873e-05,1.129e-05,0.0,0 RAX-2,1 37853U 11061D   19194.65983318 +.00001129 +00000-0 +68873-4 0  9991,2 37853 101.7096 094.5986 0170181 016.5681 344.0997 15.03462396419760,6934.3669999999975,95.779,674.2410000000001,438.222,0.0
37853,RAX-2,PAYLOAD,2019-07-14 04:36:47,15.03464111,0.017017400000000002,101.7096,95.4015,15.0029,345.6142,7.0148e-05,1.153e-05,0.0,0 RAX-2,1 37853U 11061D   19195.19221890  .00001153  00000-0  70148-4 0  9996,2 37853 101.7096  95.4015 0170174  15.0029 345.6142 15.03464111420325,6934.361,95.779,674.2310000000001,438.221,0.0
37853,RAX-2,PAYLOAD,2019-07-14 15:47:36,15.03465061,0.0170175,101.7096,96.104,13.6302,346.9421,6.702100000000001e-05,1.094e-05,0.0,0 RAX-2,1 37853U 11061D   19195.65805623 +.00001094 +00000-0 +67021-4 0  9999,2 37853 101.7096 096.1040 0170175 013.6302 346.9421 15.03465061419912,6934.358,95.779,674.2289999999998,438.218,0.0
37853,RAX-2,PAYLOAD,2019-07-15 12:33:22,15.03467385,0.0170151,101.7096,97.4088,11.0858,349.4028,6.5802e-05,1.071e-05,0.0,0 RAX-2,1 37853U 11061D   19196.52318116  .00001071  00000-0  65802-4 0  9992,2 37853 101.7096  97.4088 0170151  11.0858 349.4028 15.03467385420521,6934.351,95.779,674.205,438.228,0.0
37853,RAX-2,PAYLOAD,2019-07-16 15:42:28,15.03469885,0.0170133,101.7094,99.1149,7.7521,352.6259,6.0415e-05,9.699999999999999e-06,0.0,0 RAX-2,1 37853U 11061D   19197.65449647  .00000970  00000-0  60415-4 0  9993,2 37853 101.7094  99.1149 0170133   7.7521 352.6259 15.03469885420692,6934.344,95.77799999999999,674.185,438.23199999999997,0.0
37853,RAX-2,PAYLOAD,2019-07-17 18:51:34,15.0347177,0.0170108,101.7092,100.8211,4.4174,355.8492,5.2997e-05,8.3e-06,0.0,0 RAX-2,1 37853U 11061D   19198.78581033  .00000830  00000-0  52997-4 0  9995,2 37853 101.7092 100.8211 0170108   4.4174 355.8492 15.03471770420869,6934.3380000000025,95.77799999999999,674.1610000000003,438.244,0.0
37853,RAX-2,PAYLOAD,2019-07-18 18:48:59,15.03473218,0.0170087,101.709,102.3265,1.4734,358.6943,4.5953999999999994e-05,6.98e-06,0.0,0 RAX-2,1 37853U 11061D   19199.78402701 +.00000698 +00000-0 +45954-4 0  9997,2 37853 101.7090 102.3265 0170087 001.4734 358.6943 15.03473218420533,6934.333000000001,95.77799999999999,674.1419999999998,438.254,0.0
37853,RAX-2,PAYLOAD,2019-07-19 04:23:58,15.03473864,0.0170075,101.7088,102.9286,0.2964,359.8319,4.3846000000000014e-05,6.58e-06,0.0,0 RAX-2,1 37853U 11061D   19200.18331331  .00000658  00000-0  43846-4 0  9998,2 37853 101.7088 102.9286 0170075   0.2964 359.8319 15.03473864421075,6934.331,95.77799999999999,674.132,438.26099999999997,0.0
37853,RAX-2,PAYLOAD,2019-07-19 18:46:25,15.03474634,0.017006,101.7086,103.8318,358.5323,1.5367,3.9748e-05,5.81e-06,0.0,0 RAX-2,1 37853U 11061D   19200.78224252 +.00000581 +00000-0 +39748-4 0  9998,2 37853 101.7086 103.8318 0170060 358.5323 001.5367 15.03474634420687,6934.329000000002,95.77799999999999,674.1189999999998,438.269,0.0
37853,RAX-2,PAYLOAD,2019-07-20 07:33:03,15.034753899999998,0.017005799999999998,101.7085,104.6346,356.9617,3.0546,3.7196999999999996e-05,5.33e-06,0.0,0 RAX-2,1 37853U 11061D   19201.31462379  .00000533  00000-0  37197-4 0  9995,2 37853 101.7085 104.6346 0170058 356.9617   3.0546 15.03475390421240,6934.3269999999975,95.77799999999999,674.115,438.26800000000003,0.0
